[{"OBJECT_NAME":"DMSP 5D-3 F16 (USA 172)","OBJECT_ID":"2003-048A","EPOCH":"2026-03-14T14:22:39.635040","MEAN_MOTION":14.14464238,"ECCENTRICITY":0.00079949,"INCLINATION":98.9987,"RA_OF_ASC_NODE":96.7633,"ARG_OF_PERICENTER":60.4434,"MEAN_ANOMALY":49.7553,"EPHEMERIS_TYPE":0,"CLASSIFICATION_TYPE":"U","NORAD_CAT_ID":28054,"ELEMENT_SET_NO":999,"REV_AT_EPOCH":15611,"BSTAR":0.00011239632,"MEAN_MOTION_DOT":1.7e-6,"MEAN_MOTION_DDOT":0},{"OBJECT_NAME":"METEOSAT-9 (MSG-2)","OBJECT_ID":"2005-049B","EPOCH":"2026-03-13T12:11:24.692352","MEAN_MOTION":1.00267419,"ECCENTRICITY":1.841e-5,"INCLINATION":9.1445,"RA_OF_ASC_NODE":55.0898,"ARG_OF_PERICENTER":58.1827,"MEAN_ANOMALY":286.5308,"EPHEMERIS_TYPE":0,"CLASSIFICATION_TYPE":"U","NORAD_CAT_ID":28912,"ELEMENT_SET_NO":999,"REV_AT_EPOCH":603,"BSTAR":0,"MEAN_MOTION_DOT":1.28e-6,"MEAN_MOTION_DDOT":0},{"OBJECT_NAME":"DMSP 5D-3 F17 (USA 191)","OBJECT_ID":"2006-050A","EPOCH":"2026-03-14T13:22:20.612928","MEAN_MOTION":14.14966534,"ECCENTRICITY":0.00094996,"INCLINATION":98.7413,"RA_OF_ASC_NODE":82.0534,"ARG_OF_PERICENTER":332.4427,"MEAN_ANOMALY":27.6242,"EPHEMERIS_TYPE":0,"CLASSIFICATION_TYPE":"U","NORAD_CAT_ID":29522,"ELEMENT_SET_NO":999,"REV_AT_EPOCH":99903,"BSTAR":0.00013151103,"MEAN_MOTION_DOT":2.11e-6,"MEAN_MOTION_DDOT":0},{"OBJECT_NAME":"FENGYUN 3A","OBJECT_ID":"2008-026A","EPOCH":"2026-03-14T10:59:05.559072","MEAN_MOTION":14.19547936,"ECCENTRICITY":0.00095509,"INCLINATION":98.6801,"RA_OF_ASC_NODE":16.1056,"ARG_OF_PERICENTER":45.8989,"MEAN_ANOMALY":314.2972,"EPHEMERIS_TYPE":0,"CLASSIFICATION_TYPE":"U","NORAD_CAT_ID":32958,"ELEMENT_SET_NO":999,"REV_AT_EPOCH":92196,"BSTAR":6.8272769e-5,"MEAN_MOTION_DOT":1.01e-6,"MEAN_MOTION_DDOT":0},{"OBJECT_NAME":"GOES 14","OBJECT_ID":"2009-033A","EPOCH":"2026-03-14T14:34:29.218368","MEAN_MOTION":1.00103446,"ECCENTRICITY":0.00016796,"INCLINATION":1.444,"RA_OF_ASC_NODE":84.2624,"ARG_OF_PERICENTER":273.983,"MEAN_ANOMALY":228.1978,"EPHEMERIS_TYPE":0,"CLASSIFICATION_TYPE":"U","NORAD_CAT_ID":35491,"ELEMENT_SET_NO":999,"REV_AT_EPOCH":564,"BSTAR":0,"MEAN_MOTION_DOT":1.1e-6,"MEAN_MOTION_DDOT":0},{"OBJECT_NAME":"DMSP 5D-3 F18 (USA 210)","OBJECT_ID":"2009-057A","EPOCH":"2026-03-14T14:12:27.603360","MEAN_MOTION":14.14839463,"ECCENTRICITY":0.00113994,"INCLINATION":98.8969,"RA_OF_ASC_NODE":54.6051,"ARG_OF_PERICENTER":154.5613,"MEAN_ANOMALY":205.6124,"EPHEMERIS_TYPE":0,"CLASSIFICATION_TYPE":"U","NORAD_CAT_ID":35951,"ELEMENT_SET_NO":999,"REV_AT_EPOCH":84621,"BSTAR":0.00018339211,"MEAN_MOTION_DOT":3.1e-6,"MEAN_MOTION_DDOT":0},{"OBJECT_NAME":"EWS-G2 (GOES 15)","OBJECT_ID":"2010-008A","EPOCH":"2026-03-14T14:58:36.642144","MEAN_MOTION":1.00270283,"ECCENTRICITY":0.00025447,"INCLINATION":1.032,"RA_OF_ASC_NODE":84.9083,"ARG_OF_PERICENTER":17.1366,"MEAN_ANOMALY":358.2423,"EPHEMERIS_TYPE":0,"CLASSIFICATION_TYPE":"U","NORAD_CAT_ID":36411,"ELEMENT_SET_NO":999,"REV_AT_EPOCH":5869,"BSTAR":0,"MEAN_MOTION_DOT":2.1e-7,"MEAN_MOTION_DDOT":0},{"OBJECT_NAME":"COMS 1","OBJECT_ID":"2010-032A","EPOCH":"2026-03-14T13:00:23.331744","MEAN_MOTION":1.00272707,"ECCENTRICITY":8.178e-5,"INCLINATION":4.5596,"RA_OF_ASC_NODE":76.7093,"ARG_OF_PERICENTER":289.0605,"MEAN_ANOMALY":129.6388,"EPHEMERIS_TYPE":0,"CLASSIFICATION_TYPE":"U","NORAD_CAT_ID":36744,"ELEMENT_SET_NO":999,"REV_AT_EPOCH":5014,"BSTAR":0,"MEAN_MOTION_DOT":-3.43e-6,"MEAN_MOTION_DDOT":0},{"OBJECT_NAME":"FENGYUN 3B","OBJECT_ID":"2010-059A","EPOCH":"2026-03-14T15:05:07.903680","MEAN_MOTION":14.14820618,"ECCENTRICITY":0.00231399,"INCLINATION":98.9762,"RA_OF_ASC_NODE":119.1909,"ARG_OF_PERICENTER":94.6799,"MEAN_ANOMALY":56.9765,"EPHEMERIS_TYPE":0,"CLASSIFICATION_TYPE":"U","NORAD_CAT_ID":37214,"ELEMENT_SET_NO":999,"REV_AT_EPOCH":79405,"BSTAR":0.00026558802,"MEAN_MOTION_DOT":4.69e-6,"MEAN_MOTION_DDOT":0},{"OBJECT_NAME":"SUOMI NPP","OBJECT_ID":"2011-061A","EPOCH":"2026-03-14T14:33:37.475136","MEAN_MOTION":14.19545199,"ECCENTRICITY":6.866e-5,"INCLINATION":98.7875,"RA_OF_ASC_NODE":15.1705,"ARG_OF_PERICENTER":197.739,"MEAN_ANOMALY":162.3762,"EPHEMERIS_TYPE":0,"CLASSIFICATION_TYPE":"U","NORAD_CAT_ID":37849,"ELEMENT_SET_NO":999,"REV_AT_EPOCH":74502,"BSTAR":7.3208624e-5,"MEAN_MOTION_DOT":1.1e-6,"MEAN_MOTION_DDOT":0},{"OBJECT_NAME":"METEOSAT-10 (MSG-3)","OBJECT_ID":"2012-035B","EPOCH":"2026-03-14T13:38:42.614592","MEAN_MOTION":1.00269338,"ECCENTRICITY":0.00023537,"INCLINATION":4.4463,"RA_OF_ASC_NODE":61.4124,"ARG_OF_PERICENTER":287.8622,"MEAN_ANOMALY":27.7302,"EPHEMERIS_TYPE":0,"CLASSIFICATION_TYPE":"U","NORAD_CAT_ID":38552,"ELEMENT_SET_NO":999,"REV_AT_EPOCH":4990,"BSTAR":0,"MEAN_MOTION_DOT":-5.0e-8,"MEAN_MOTION_DDOT":0},{"OBJECT_NAME":"METOP-B","OBJECT_ID":"2012-049A","EPOCH":"2026-03-14T14:00:17.903520","MEAN_MOTION":14.21446444,"ECCENTRICITY":0.00013123,"INCLINATION":98.6632,"RA_OF_ASC_NODE":126.9191,"ARG_OF_PERICENTER":239.8727,"MEAN_ANOMALY":120.232,"EPHEMERIS_TYPE":0,"CLASSIFICATION_TYPE":"U","NORAD_CAT_ID":38771,"ELEMENT_SET_NO":999,"REV_AT_EPOCH":69982,"BSTAR":7.7649019e-5,"MEAN_MOTION_DOT":1.26e-6,"MEAN_MOTION_DDOT":0},{"OBJECT_NAME":"INSAT-3D","OBJECT_ID":"2013-038B","EPOCH":"2026-03-14T14:15:31.584384","MEAN_MOTION":1.00276418,"ECCENTRICITY":0.00015489,"INCLINATION":1.6801,"RA_OF_ASC_NODE":83.7801,"ARG_OF_PERICENTER":245.2557,"MEAN_ANOMALY":186.5583,"EPHEMERIS_TYPE":0,"CLASSIFICATION_TYPE":"U","NORAD_CAT_ID":39216,"ELEMENT_SET_NO":999,"REV_AT_EPOCH":4613,"BSTAR":0,"MEAN_MOTION_DOT":-3.39e-6,"MEAN_MOTION_DDOT":0},{"OBJECT_NAME":"FENGYUN 3C","OBJECT_ID":"2013-052A","EPOCH":"2026-03-14T14:57:13.514112","MEAN_MOTION":14.15730854,"ECCENTRICITY":0.00136517,"INCLINATION":98.4899,"RA_OF_ASC_NODE":51.8841,"ARG_OF_PERICENTER":298.0901,"MEAN_ANOMALY":61.8893,"EPHEMERIS_TYPE":0,"CLASSIFICATION_TYPE":"U","NORAD_CAT_ID":39260,"ELEMENT_SET_NO":999,"REV_AT_EPOCH":64518,"BSTAR":9.9344309e-5,"MEAN_MOTION_DOT":1.54e-6,"MEAN_MOTION_DDOT":0},{"OBJECT_NAME":"METEOR-M 2","OBJECT_ID":"2014-037A","EPOCH":"2026-03-14T14:39:31.555296","MEAN_MOTION":14.21430958,"ECCENTRICITY":0.0005103,"INCLINATION":98.5032,"RA_OF_ASC_NODE":52.7426,"ARG_OF_PERICENTER":322.4027,"MEAN_ANOMALY":37.6793,"EPHEMERIS_TYPE":0,"CLASSIFICATION_TYPE":"U","NORAD_CAT_ID":40069,"ELEMENT_SET_NO":999,"REV_AT_EPOCH":60588,"BSTAR":4.2075845e-5,"MEAN_MOTION_DOT":5.0e-7,"MEAN_MOTION_DDOT":0},{"OBJECT_NAME":"HIMAWARI-8","OBJECT_ID":"2014-060A","EPOCH":"2026-03-14T12:36:03.621888","MEAN_MOTION":1.00271524,"ECCENTRICITY":2.717e-5,"INCLINATION":0.0038,"RA_OF_ASC_NODE":146.1206,"ARG_OF_PERICENTER":186.1782,"MEAN_ANOMALY":169.532,"EPHEMERIS_TYPE":0,"CLASSIFICATION_TYPE":"U","NORAD_CAT_ID":40267,"ELEMENT_SET_NO":999,"REV_AT_EPOCH":4181,"BSTAR":0,"MEAN_MOTION_DOT":-2.76e-6,"MEAN_MOTION_DDOT":0},{"OBJECT_NAME":"FENGYUN 2G","OBJECT_ID":"2014-090A","EPOCH":"2026-03-14T15:39:13.490208","MEAN_MOTION":1.00270832,"ECCENTRICITY":0.00014638,"INCLINATION":5.3984,"RA_OF_ASC_NODE":73.9555,"ARG_OF_PERICENTER":140.2701,"MEAN_ANOMALY":292.5542,"EPHEMERIS_TYPE":0,"CLASSIFICATION_TYPE":"U","NORAD_CAT_ID":40367,"ELEMENT_SET_NO":999,"REV_AT_EPOCH":4105,"BSTAR":0,"MEAN_MOTION_DOT":-3.0e-6,"MEAN_MOTION_DDOT":0}]
