DMSP 5D-3 F16 (USA 172) 
1 28054U 03048A   26073.59906985  .00000170  00000+0  11240-3 0  9991
2 28054  98.9987  96.7633 0007994  60.4434  49.7553 14.14464238156119
METEOSAT-9 (MSG-2)      
1 28912U 05049B   26072.50792468  .00000128  00000+0  00000+0 0  9997
2 28912   9.1445  55.0898 0000184  58.1827 286.5308  1.00267419  6037
DMSP 5D-3 F17 (USA 191) 
1 29522U 06050A   26073.55718302  .00000211  00000+0  13151-3 0  9997
2 29522  98.7413  82.0534 0009499 332.4427  27.6242 14.14966534999038
FENGYUN 3A              
1 32958U 08026A   26073.45770323  .00000101  00000+0  68273-4 0  9993
2 32958  98.6801  16.1056 0009550  45.8989 314.2972 14.19547936921966
GOES 14                 
1 35491U 09033A   26073.60728262  .00000110  00000+0  00000+0 0  9998
2 35491   1.4440  84.2624 0001679 273.9830 228.1978  1.00103446  5649
DMSP 5D-3 F18 (USA 210) 
1 35951U 09057A   26073.59198615  .00000310  00000+0  18339-3 0  9996
2 35951  98.8969  54.6051 0011399 154.5613 205.6124 14.14839463846217
EWS-G2 (GOES 15)        
1 36411U 10008A   26073.62403521  .00000021  00000+0  00000+0 0  9996
2 36411   1.0320  84.9083 0002544  17.1366 358.2423  1.00270283 58692
COMS 1                  
1 36744U 10032A   26073.54193671 -.00000343  00000+0  00000+0 0  9993
2 36744   4.5596  76.7093 0000817 289.0605 129.6388  1.00272707 50146
FENGYUN 3B              
1 37214U 10059A   26073.62856370  .00000469  00000+0  26559-3 0  9995
2 37214  98.9762 119.1909 0023139  94.6799  56.9765 14.14820618794050
SUOMI NPP               
1 37849U 11061A   26073.60668374  .00000110  00000+0  73209-4 0  9994
2 37849  98.7875  15.1705 0000686 197.7390 162.3762 14.19545199745025
METEOSAT-10 (MSG-3)     
1 38552U 12035B   26073.56854878 -.00000005  00000+0  00000+0 0  9997
2 38552   4.4463  61.4124 0002353 287.8622  27.7302  1.00269338 49907
METOP-B                 
1 38771U 12049A   26073.58354055  .00000126  00000+0  77649-4 0  9990
2 38771  98.6632 126.9191 0001312 239.8727 120.2320 14.21446444699824
INSAT-3D                
1 39216U 13038B   26073.59411556 -.00000339  00000+0  00000+0 0  9994
2 39216   1.6801  83.7801 0001548 245.2557 186.5583  1.00276418 46133
FENGYUN 3C              
1 39260U 13052A   26073.62307308  .00000154  00000+0  99344-4 0  9990
2 39260  98.4899  51.8841 0013651 298.0901  61.8893 14.15730854645188
METEOR-M 2              
1 40069U 14037A   26073.61078189  .00000050  00000+0  42076-4 0  9999
2 40069  98.5032  52.7426 0005103 322.4027  37.6793 14.21430958605882
HIMAWARI-8              
1 40267U 14060A   26073.52504192 -.00000276  00000+0  00000+0 0  9990
2 40267   0.0038 146.1206 0000271 186.1782 169.5320  1.00271524 41817
FENGYUN 2G              
1 40367U 14090A   26073.65223947 -.00000300  00000+0  00000+0 0  9992
2 40367   5.3984  73.9555 0001463 140.2701 292.5542  1.00270832 41056
